STARLINK-36404          
1 67664U 26022S   26047.25002315 -.01682785  00000+0 -12001-1 0  9991
2 67664  97.2813  80.2009 0001156  72.8252  14.5930 15.76535570  3413
STARLINK-36399          
1 67665U 26022T   26047.25002315 -.01525001  00000+0 -11046-1 0  9997
2 67665  97.2809  80.2028 0001315  72.0666  19.4927 15.76375239  3412
STARLINK-36365          
1 67666U 26022U   26047.25002315 -.01788344  00000+0 -12790-1 0  9996
2 67666  97.2806  80.2063 0001498  71.5771  27.7492 15.76650434  3447
STARLINK-36622          
1 67667U 26022V   26047.25002315 -.01918425  00000+0 -13519-1 0  9992
2 67667  97.2836  80.2106 0001656  65.6621  42.9033 15.77209325  3443
STARLINK-36625          
1 67668U 26022W   26047.25002315 -.01911303  00000+0 -13505-1 0  9996
2 67668  97.2837  80.2137 0001800  62.4399  54.2368 15.77134696  3442
STARLINK-36639          
1 67669U 26022X   26047.25002315 -.01893995  00000+0 -13130-1 0  9997
2 67669  97.2802  80.2180 0001832  70.0884  55.8443 15.77529801  3449
STARLINK-36596          
1 67670U 26022Y   26047.25002315 -.01979834  00000+0 -13373-1 0  9995
2 67670  97.2820  80.2201 0001601  71.2313  63.1050 15.78261106  3447
STARLINK-36297          
1 67671U 26022Z   26047.25002315 -.01978286  00000+0 -13259-1 0  9999
2 67671  97.2821  80.2247 0001791  82.8919  62.9969 15.78428630  3442
STARLINK-36616          
1 67672U 26022AA  26047.25002315 -.01983319  00000+0 -13645-1 0  9992
2 67672  97.2786  80.2219 0001675  80.6742  58.6409 15.77860458  3441
COSMOS 2600             
1 67674U 26023A   26047.28531895  .00073431  00000+0  35215-3 0  9999
2 67674  96.6484 123.5973 0001620  58.3245 301.8183 15.82519684  1661
2026-023B               
1 67675U 26023B   26046.63974297  .00013628  00000+0  58896-3 0  9997
2 67675  96.6405 122.1448 0017664 209.2041 150.8211 15.22427648  1502
2026-023C               
1 67676U 26023C   26047.23089492  .00013055  00000+0  56255-3 0  9990
2 67676  96.6439 122.6813 0018945 196.7047 163.3570 15.22513059  1756
