CCSDS_OMM_VERS = 2.0
CREATION_DATE  = 
ORIGINATOR     = 

OBJECT_NAME    = STARLINK-36404
OBJECT_ID      = 2026-022S
CENTER_NAME    = EARTH
REF_FRAME      = TEME
TIME_SYSTEM    = UTC
MEAN_ELEMENT_THEORY = SGP/SGP4

EPOCH          = 2026-02-16T06:00:02.000160
MEAN_MOTION    = 15.76535570
ECCENTRICITY   = .00011569
INCLINATION    = 97.2813
RA_OF_ASC_NODE = 80.2009
ARG_OF_PERICENTER = 72.8252
MEAN_ANOMALY   = 14.5930

EPHEMERIS_TYPE = 0
CLASSIFICATION_TYPE = U
NORAD_CAT_ID   = 67664
ELEMENT_SET_NO = 999
REV_AT_EPOCH   = 341
BSTAR          = -.12000774E-1
MEAN_MOTION_DOT = -.1682785E-1
MEAN_MOTION_DDOT = 0

CCSDS_OMM_VERS = 2.0
CREATION_DATE  = 
ORIGINATOR     = 

OBJECT_NAME    = STARLINK-36399
OBJECT_ID      = 2026-022T
CENTER_NAME    = EARTH
REF_FRAME      = TEME
TIME_SYSTEM    = UTC
MEAN_ELEMENT_THEORY = SGP/SGP4

EPOCH          = 2026-02-16T06:00:02.000160
MEAN_MOTION    = 15.76375239
ECCENTRICITY   = .00013155
INCLINATION    = 97.2809
RA_OF_ASC_NODE = 80.2028
ARG_OF_PERICENTER = 72.0666
MEAN_ANOMALY   = 19.4927

EPHEMERIS_TYPE = 0
CLASSIFICATION_TYPE = U
NORAD_CAT_ID   = 67665
ELEMENT_SET_NO = 999
REV_AT_EPOCH   = 341
BSTAR          = -.11046272E-1
MEAN_MOTION_DOT = -.1525001E-1
MEAN_MOTION_DDOT = 0

CCSDS_OMM_VERS = 2.0
CREATION_DATE  = 
ORIGINATOR     = 

OBJECT_NAME    = STARLINK-36365
OBJECT_ID      = 2026-022U
CENTER_NAME    = EARTH
REF_FRAME      = TEME
TIME_SYSTEM    = UTC
MEAN_ELEMENT_THEORY = SGP/SGP4

EPOCH          = 2026-02-16T06:00:02.000160
MEAN_MOTION    = 15.76650434
ECCENTRICITY   = .00014987
INCLINATION    = 97.2806
RA_OF_ASC_NODE = 80.2063
ARG_OF_PERICENTER = 71.5771
MEAN_ANOMALY   = 27.7492

EPHEMERIS_TYPE = 0
CLASSIFICATION_TYPE = U
NORAD_CAT_ID   = 67666
ELEMENT_SET_NO = 999
REV_AT_EPOCH   = 344
BSTAR          = -.12789705E-1
MEAN_MOTION_DOT = -.1788344E-1
MEAN_MOTION_DDOT = 0

CCSDS_OMM_VERS = 2.0
CREATION_DATE  = 
ORIGINATOR     = 

OBJECT_NAME    = STARLINK-36622
OBJECT_ID      = 2026-022V
CENTER_NAME    = EARTH
REF_FRAME      = TEME
TIME_SYSTEM    = UTC
MEAN_ELEMENT_THEORY = SGP/SGP4

EPOCH          = 2026-02-16T06:00:02.000160
MEAN_MOTION    = 15.77209325
ECCENTRICITY   = .00016564
INCLINATION    = 97.2836
RA_OF_ASC_NODE = 80.2106
ARG_OF_PERICENTER = 65.6621
MEAN_ANOMALY   = 42.9033

EPHEMERIS_TYPE = 0
CLASSIFICATION_TYPE = U
NORAD_CAT_ID   = 67667
ELEMENT_SET_NO = 999
REV_AT_EPOCH   = 344
BSTAR          = -.13518766E-1
MEAN_MOTION_DOT = -.1918425E-1
MEAN_MOTION_DDOT = 0

CCSDS_OMM_VERS = 2.0
CREATION_DATE  = 
ORIGINATOR     = 

OBJECT_NAME    = STARLINK-36625
OBJECT_ID      = 2026-022W
CENTER_NAME    = EARTH
REF_FRAME      = TEME
TIME_SYSTEM    = UTC
MEAN_ELEMENT_THEORY = SGP/SGP4

EPOCH          = 2026-02-16T06:00:02.000160
MEAN_MOTION    = 15.77134696
ECCENTRICITY   = .00018001
INCLINATION    = 97.2837
RA_OF_ASC_NODE = 80.2137
ARG_OF_PERICENTER = 62.4399
MEAN_ANOMALY   = 54.2368

EPHEMERIS_TYPE = 0
CLASSIFICATION_TYPE = U
NORAD_CAT_ID   = 67668
ELEMENT_SET_NO = 999
REV_AT_EPOCH   = 344
BSTAR          = -.13504759E-1
MEAN_MOTION_DOT = -.1911303E-1
MEAN_MOTION_DDOT = 0

CCSDS_OMM_VERS = 2.0
CREATION_DATE  = 
ORIGINATOR     = 

OBJECT_NAME    = STARLINK-36639
OBJECT_ID      = 2026-022X
CENTER_NAME    = EARTH
REF_FRAME      = TEME
TIME_SYSTEM    = UTC
MEAN_ELEMENT_THEORY = SGP/SGP4

EPOCH          = 2026-02-16T06:00:02.000160
MEAN_MOTION    = 15.77529801
ECCENTRICITY   = .00018321
INCLINATION    = 97.2802
RA_OF_ASC_NODE = 80.2180
ARG_OF_PERICENTER = 70.0884
MEAN_ANOMALY   = 55.8443

EPHEMERIS_TYPE = 0
CLASSIFICATION_TYPE = U
NORAD_CAT_ID   = 67669
ELEMENT_SET_NO = 999
REV_AT_EPOCH   = 344
BSTAR          = -.13129729E-1
MEAN_MOTION_DOT = -.1893995E-1
MEAN_MOTION_DDOT = 0

CCSDS_OMM_VERS = 2.0
CREATION_DATE  = 
ORIGINATOR     = 

OBJECT_NAME    = STARLINK-36596
OBJECT_ID      = 2026-022Y
CENTER_NAME    = EARTH
REF_FRAME      = TEME
TIME_SYSTEM    = UTC
MEAN_ELEMENT_THEORY = SGP/SGP4

EPOCH          = 2026-02-16T06:00:02.000160
MEAN_MOTION    = 15.78261106
ECCENTRICITY   = .00016011
INCLINATION    = 97.2820
RA_OF_ASC_NODE = 80.2201
ARG_OF_PERICENTER = 71.2313
MEAN_ANOMALY   = 63.1050

EPHEMERIS_TYPE = 0
CLASSIFICATION_TYPE = U
NORAD_CAT_ID   = 67670
ELEMENT_SET_NO = 999
REV_AT_EPOCH   = 344
BSTAR          = -.13373485E-1
MEAN_MOTION_DOT = -.1979834E-1
MEAN_MOTION_DDOT = 0

CCSDS_OMM_VERS = 2.0
CREATION_DATE  = 
ORIGINATOR     = 

OBJECT_NAME    = STARLINK-36297
OBJECT_ID      = 2026-022Z
CENTER_NAME    = EARTH
REF_FRAME      = TEME
TIME_SYSTEM    = UTC
MEAN_ELEMENT_THEORY = SGP/SGP4

EPOCH          = 2026-02-16T06:00:02.000160
MEAN_MOTION    = 15.78428630
ECCENTRICITY   = .00017913
INCLINATION    = 97.2821
RA_OF_ASC_NODE = 80.2247
ARG_OF_PERICENTER = 82.8919
MEAN_ANOMALY   = 62.9969

EPHEMERIS_TYPE = 0
CLASSIFICATION_TYPE = U
NORAD_CAT_ID   = 67671
ELEMENT_SET_NO = 999
REV_AT_EPOCH   = 344
BSTAR          = -.13258969E-1
MEAN_MOTION_DOT = -.1978286E-1
MEAN_MOTION_DDOT = 0

CCSDS_OMM_VERS = 2.0
CREATION_DATE  = 
ORIGINATOR     = 

OBJECT_NAME    = STARLINK-36616
OBJECT_ID      = 2026-022AA
CENTER_NAME    = EARTH
REF_FRAME      = TEME
TIME_SYSTEM    = UTC
MEAN_ELEMENT_THEORY = SGP/SGP4

EPOCH          = 2026-02-16T06:00:02.000160
MEAN_MOTION    = 15.77860458
ECCENTRICITY   = .00016751
INCLINATION    = 97.2786
RA_OF_ASC_NODE = 80.2219
ARG_OF_PERICENTER = 80.6742
MEAN_ANOMALY   = 58.6409

EPHEMERIS_TYPE = 0
CLASSIFICATION_TYPE = U
NORAD_CAT_ID   = 67672
ELEMENT_SET_NO = 999
REV_AT_EPOCH   = 344
BSTAR          = -.13644507E-1
MEAN_MOTION_DOT = -.1983319E-1
MEAN_MOTION_DDOT = 0

CCSDS_OMM_VERS = 2.0
CREATION_DATE  = 
ORIGINATOR     = 

OBJECT_NAME    = COSMOS 2600
OBJECT_ID      = 2026-023A
CENTER_NAME    = EARTH
REF_FRAME      = TEME
TIME_SYSTEM    = UTC
MEAN_ELEMENT_THEORY = SGP/SGP4

EPOCH          = 2026-02-16T06:50:51.557280
MEAN_MOTION    = 15.82519684
ECCENTRICITY   = .00016203
INCLINATION    = 96.6484
RA_OF_ASC_NODE = 123.5973
ARG_OF_PERICENTER = 58.3245
MEAN_ANOMALY   = 301.8183

EPHEMERIS_TYPE = 0
CLASSIFICATION_TYPE = U
NORAD_CAT_ID   = 67674
ELEMENT_SET_NO = 999
REV_AT_EPOCH   = 166
BSTAR          = .35215323E-3
MEAN_MOTION_DOT = .73431E-3
MEAN_MOTION_DDOT = 0

CCSDS_OMM_VERS = 2.0
CREATION_DATE  = 
ORIGINATOR     = 

OBJECT_NAME    = 2026-023B
OBJECT_ID      = 2026-023B
CENTER_NAME    = EARTH
REF_FRAME      = TEME
TIME_SYSTEM    = UTC
MEAN_ELEMENT_THEORY = SGP/SGP4

EPOCH          = 2026-02-15T15:21:13.792608
MEAN_MOTION    = 15.22427648
ECCENTRICITY   = .0017664
INCLINATION    = 96.6405
RA_OF_ASC_NODE = 122.1448
ARG_OF_PERICENTER = 209.2041
MEAN_ANOMALY   = 150.8211

EPHEMERIS_TYPE = 0
CLASSIFICATION_TYPE = U
NORAD_CAT_ID   = 67675
ELEMENT_SET_NO = 999
REV_AT_EPOCH   = 150
BSTAR          = .58895854E-3
MEAN_MOTION_DOT = .13628E-3
MEAN_MOTION_DDOT = 0

CCSDS_OMM_VERS = 2.0
CREATION_DATE  = 
ORIGINATOR     = 

OBJECT_NAME    = 2026-023C
OBJECT_ID      = 2026-023C
CENTER_NAME    = EARTH
REF_FRAME      = TEME
TIME_SYSTEM    = UTC
MEAN_ELEMENT_THEORY = SGP/SGP4

EPOCH          = 2026-02-16T05:32:29.321088
MEAN_MOTION    = 15.22513059
ECCENTRICITY   = .00189453
INCLINATION    = 96.6439
RA_OF_ASC_NODE = 122.6813
ARG_OF_PERICENTER = 196.7047
MEAN_ANOMALY   = 163.3570

EPHEMERIS_TYPE = 0
CLASSIFICATION_TYPE = U
NORAD_CAT_ID   = 67676
ELEMENT_SET_NO = 999
REV_AT_EPOCH   = 175
BSTAR          = .56255042E-3
MEAN_MOTION_DOT = .13055E-3
MEAN_MOTION_DDOT = 0

